STARLINK-35610          
1 66428U 25259G   25333.25002315 -.01988639  00000+0 -24104-1 0  9990
2 66428  42.9995 126.3665 0001717 271.8594 141.9842 15.63124246  4116
STARLINK-35533          
1 66429U 25259H   25333.25002315 -.01994534  00000+0 -24185-1 0  9991
2 66429  42.9994 126.3606 0001611 275.0398 140.7219 15.63125909  4114
STARLINK-35470          
1 66430U 25259J   25333.25002315 -.01972227  00000+0 -23884-1 0  9993
2 66430  42.9996 126.3578 0001968 273.8979 143.7824 15.63115271  4118
STARLINK-35439          
1 66431U 25259K   25333.25002315 -.01973051  00000+0 -23895-1 0  9992
2 66431  42.9997 126.3519 0001968 273.2363 146.3609 15.63114663  4110
STARLINK-35446          
1 66432U 25259L   25333.25002315 -.01995980  00000+0 -24204-1 0  9993
2 66432  42.9995 126.3460 0001702 274.7575 146.7555 15.63125327  4114
STARLINK-35457          
1 66433U 25259M   25333.25002315 -.01998156  00000+0 -24233-1 0  9994
2 66433  42.9993 126.3424 0001606 273.8037 149.6249 15.63128316  4112
STARLINK-35389          
1 66434U 25259N   25333.25002315 -.01974686  00000+0 -23919-1 0  9997
2 66434  42.9996 126.3384 0001813 275.9957 149.3542 15.63114904  4116
STARLINK-35502          
1 66435U 25259P   25333.25002315 -.01975958  00000+0 -23934-1 0  9998
2 66435  42.9997 126.3344 0001922 276.1459 151.1185 15.63117125  4117
STARLINK-35501          
1 66436U 25259Q   25333.25002315 -.01968570  00000+0 -23836-1 0  9992
2 66436  42.9998 126.3238 0001909 275.5124 155.5871 15.63112801  4114
STARLINK-35474          
1 66437U 25259R   25333.25002315 -.01970874  00000+0 -23866-1 0  9996
2 66437  42.9998 126.3194 0001990 276.9021 156.1144 15.63113651  4111
STARLINK-34681          
1 66438U 25259S   25333.25002315 -.01978363  00000+0 -23966-1 0  9999
2 66438  42.9994 126.3143 0001913 275.9244 159.0079 15.63117690  4007
STARLINK-35327          
1 66439U 25259T   25333.25002315 -.01970779  00000+0 -23867-1 0  9993
2 66439  42.9997 126.3305 0001833 276.1495 153.0350 15.63112756  4119
