CCSDS_OMM_VERS = 2.0
CREATION_DATE  = 
ORIGINATOR     = 

OBJECT_NAME    = STARLINK-35610
OBJECT_ID      = 2025-259G
CENTER_NAME    = EARTH
REF_FRAME      = TEME
TIME_SYSTEM    = UTC
MEAN_ELEMENT_THEORY = SGP/SGP4

EPOCH          = 2025-11-29T06:00:02.000160
MEAN_MOTION    = 15.63124246
ECCENTRICITY   = .0001717
INCLINATION    = 42.9995
RA_OF_ASC_NODE = 126.3665
ARG_OF_PERICENTER = 271.8594
MEAN_ANOMALY   = 141.9842

EPHEMERIS_TYPE = 0
CLASSIFICATION_TYPE = U
NORAD_CAT_ID   = 66428
ELEMENT_SET_NO = 999
REV_AT_EPOCH   = 411
BSTAR          = -.2410395E-1
MEAN_MOTION_DOT = -.1988639E-1
MEAN_MOTION_DDOT = 0

CCSDS_OMM_VERS = 2.0
CREATION_DATE  = 
ORIGINATOR     = 

OBJECT_NAME    = STARLINK-35533
OBJECT_ID      = 2025-259H
CENTER_NAME    = EARTH
REF_FRAME      = TEME
TIME_SYSTEM    = UTC
MEAN_ELEMENT_THEORY = SGP/SGP4

EPOCH          = 2025-11-29T06:00:02.000160
MEAN_MOTION    = 15.63125909
ECCENTRICITY   = .00016112
INCLINATION    = 42.9994
RA_OF_ASC_NODE = 126.3606
ARG_OF_PERICENTER = 275.0398
MEAN_ANOMALY   = 140.7219

EPHEMERIS_TYPE = 0
CLASSIFICATION_TYPE = U
NORAD_CAT_ID   = 66429
ELEMENT_SET_NO = 999
REV_AT_EPOCH   = 411
BSTAR          = -.24184907E-1
MEAN_MOTION_DOT = -.1994534E-1
MEAN_MOTION_DDOT = 0

CCSDS_OMM_VERS = 2.0
CREATION_DATE  = 
ORIGINATOR     = 

OBJECT_NAME    = STARLINK-35470
OBJECT_ID      = 2025-259J
CENTER_NAME    = EARTH
REF_FRAME      = TEME
TIME_SYSTEM    = UTC
MEAN_ELEMENT_THEORY = SGP/SGP4

EPOCH          = 2025-11-29T06:00:02.000160
MEAN_MOTION    = 15.63115271
ECCENTRICITY   = .00019681
INCLINATION    = 42.9996
RA_OF_ASC_NODE = 126.3578
ARG_OF_PERICENTER = 273.8979
MEAN_ANOMALY   = 143.7824

EPHEMERIS_TYPE = 0
CLASSIFICATION_TYPE = U
NORAD_CAT_ID   = 66430
ELEMENT_SET_NO = 999
REV_AT_EPOCH   = 411
BSTAR          = -.23883504E-1
MEAN_MOTION_DOT = -.1972227E-1
MEAN_MOTION_DDOT = 0

CCSDS_OMM_VERS = 2.0
CREATION_DATE  = 
ORIGINATOR     = 

OBJECT_NAME    = STARLINK-35439
OBJECT_ID      = 2025-259K
CENTER_NAME    = EARTH
REF_FRAME      = TEME
TIME_SYSTEM    = UTC
MEAN_ELEMENT_THEORY = SGP/SGP4

EPOCH          = 2025-11-29T06:00:02.000160
MEAN_MOTION    = 15.63114663
ECCENTRICITY   = .00019688
INCLINATION    = 42.9997
RA_OF_ASC_NODE = 126.3519
ARG_OF_PERICENTER = 273.2363
MEAN_ANOMALY   = 146.3609

EPHEMERIS_TYPE = 0
CLASSIFICATION_TYPE = U
NORAD_CAT_ID   = 66431
ELEMENT_SET_NO = 999
REV_AT_EPOCH   = 411
BSTAR          = -.23895435E-1
MEAN_MOTION_DOT = -.1973051E-1
MEAN_MOTION_DDOT = 0

CCSDS_OMM_VERS = 2.0
CREATION_DATE  = 
ORIGINATOR     = 

OBJECT_NAME    = STARLINK-35446
OBJECT_ID      = 2025-259L
CENTER_NAME    = EARTH
REF_FRAME      = TEME
TIME_SYSTEM    = UTC
MEAN_ELEMENT_THEORY = SGP/SGP4

EPOCH          = 2025-11-29T06:00:02.000160
MEAN_MOTION    = 15.63125327
ECCENTRICITY   = .00017023
INCLINATION    = 42.9995
RA_OF_ASC_NODE = 126.3460
ARG_OF_PERICENTER = 274.7575
MEAN_ANOMALY   = 146.7555

EPHEMERIS_TYPE = 0
CLASSIFICATION_TYPE = U
NORAD_CAT_ID   = 66432
ELEMENT_SET_NO = 999
REV_AT_EPOCH   = 411
BSTAR          = -.24204473E-1
MEAN_MOTION_DOT = -.199598E-1
MEAN_MOTION_DDOT = 0

CCSDS_OMM_VERS = 2.0
CREATION_DATE  = 
ORIGINATOR     = 

OBJECT_NAME    = STARLINK-35457
OBJECT_ID      = 2025-259M
CENTER_NAME    = EARTH
REF_FRAME      = TEME
TIME_SYSTEM    = UTC
MEAN_ELEMENT_THEORY = SGP/SGP4

EPOCH          = 2025-11-29T06:00:02.000160
MEAN_MOTION    = 15.63128316
ECCENTRICITY   = .0001606
INCLINATION    = 42.9993
RA_OF_ASC_NODE = 126.3424
ARG_OF_PERICENTER = 273.8037
MEAN_ANOMALY   = 149.6249

EPHEMERIS_TYPE = 0
CLASSIFICATION_TYPE = U
NORAD_CAT_ID   = 66433
ELEMENT_SET_NO = 999
REV_AT_EPOCH   = 411
BSTAR          = -.24232696E-1
MEAN_MOTION_DOT = -.1998156E-1
MEAN_MOTION_DDOT = 0

CCSDS_OMM_VERS = 2.0
CREATION_DATE  = 
ORIGINATOR     = 

OBJECT_NAME    = STARLINK-35389
OBJECT_ID      = 2025-259N
CENTER_NAME    = EARTH
REF_FRAME      = TEME
TIME_SYSTEM    = UTC
MEAN_ELEMENT_THEORY = SGP/SGP4

EPOCH          = 2025-11-29T06:00:02.000160
MEAN_MOTION    = 15.63114904
ECCENTRICITY   = .00018138
INCLINATION    = 42.9996
RA_OF_ASC_NODE = 126.3384
ARG_OF_PERICENTER = 275.9957
MEAN_ANOMALY   = 149.3542

EPHEMERIS_TYPE = 0
CLASSIFICATION_TYPE = U
NORAD_CAT_ID   = 66434
ELEMENT_SET_NO = 999
REV_AT_EPOCH   = 411
BSTAR          = -.23919398E-1
MEAN_MOTION_DOT = -.1974686E-1
MEAN_MOTION_DDOT = 0

CCSDS_OMM_VERS = 2.0
CREATION_DATE  = 
ORIGINATOR     = 

OBJECT_NAME    = STARLINK-35502
OBJECT_ID      = 2025-259P
CENTER_NAME    = EARTH
REF_FRAME      = TEME
TIME_SYSTEM    = UTC
MEAN_ELEMENT_THEORY = SGP/SGP4

EPOCH          = 2025-11-29T06:00:02.000160
MEAN_MOTION    = 15.63117125
ECCENTRICITY   = .00019223
INCLINATION    = 42.9997
RA_OF_ASC_NODE = 126.3344
ARG_OF_PERICENTER = 276.1459
MEAN_ANOMALY   = 151.1185

EPHEMERIS_TYPE = 0
CLASSIFICATION_TYPE = U
NORAD_CAT_ID   = 66435
ELEMENT_SET_NO = 999
REV_AT_EPOCH   = 411
BSTAR          = -.23933638E-1
MEAN_MOTION_DOT = -.1975958E-1
MEAN_MOTION_DDOT = 0

CCSDS_OMM_VERS = 2.0
CREATION_DATE  = 
ORIGINATOR     = 

OBJECT_NAME    = STARLINK-35501
OBJECT_ID      = 2025-259Q
CENTER_NAME    = EARTH
REF_FRAME      = TEME
TIME_SYSTEM    = UTC
MEAN_ELEMENT_THEORY = SGP/SGP4

EPOCH          = 2025-11-29T06:00:02.000160
MEAN_MOTION    = 15.63112801
ECCENTRICITY   = .00019092
INCLINATION    = 42.9998
RA_OF_ASC_NODE = 126.3238
ARG_OF_PERICENTER = 275.5124
MEAN_ANOMALY   = 155.5871

EPHEMERIS_TYPE = 0
CLASSIFICATION_TYPE = U
NORAD_CAT_ID   = 66436
ELEMENT_SET_NO = 999
REV_AT_EPOCH   = 411
BSTAR          = -.2383614E-1
MEAN_MOTION_DOT = -.196857E-1
MEAN_MOTION_DDOT = 0

CCSDS_OMM_VERS = 2.0
CREATION_DATE  = 
ORIGINATOR     = 

OBJECT_NAME    = STARLINK-35474
OBJECT_ID      = 2025-259R
CENTER_NAME    = EARTH
REF_FRAME      = TEME
TIME_SYSTEM    = UTC
MEAN_ELEMENT_THEORY = SGP/SGP4

EPOCH          = 2025-11-29T06:00:02.000160
MEAN_MOTION    = 15.63113651
ECCENTRICITY   = .00019904
INCLINATION    = 42.9998
RA_OF_ASC_NODE = 126.3194
ARG_OF_PERICENTER = 276.9021
MEAN_ANOMALY   = 156.1144

EPHEMERIS_TYPE = 0
CLASSIFICATION_TYPE = U
NORAD_CAT_ID   = 66437
ELEMENT_SET_NO = 999
REV_AT_EPOCH   = 411
BSTAR          = -.23866183E-1
MEAN_MOTION_DOT = -.1970874E-1
MEAN_MOTION_DDOT = 0

CCSDS_OMM_VERS = 2.0
CREATION_DATE  = 
ORIGINATOR     = 

OBJECT_NAME    = STARLINK-34681
OBJECT_ID      = 2025-259S
CENTER_NAME    = EARTH
REF_FRAME      = TEME
TIME_SYSTEM    = UTC
MEAN_ELEMENT_THEORY = SGP/SGP4

EPOCH          = 2025-11-29T06:00:02.000160
MEAN_MOTION    = 15.63117690
ECCENTRICITY   = .0001913
INCLINATION    = 42.9994
RA_OF_ASC_NODE = 126.3143
ARG_OF_PERICENTER = 275.9244
MEAN_ANOMALY   = 159.0079

EPHEMERIS_TYPE = 0
CLASSIFICATION_TYPE = U
NORAD_CAT_ID   = 66438
ELEMENT_SET_NO = 999
REV_AT_EPOCH   = 400
BSTAR          = -.23966348E-1
MEAN_MOTION_DOT = -.1978363E-1
MEAN_MOTION_DDOT = 0

CCSDS_OMM_VERS = 2.0
CREATION_DATE  = 
ORIGINATOR     = 

OBJECT_NAME    = STARLINK-35327
OBJECT_ID      = 2025-259T
CENTER_NAME    = EARTH
REF_FRAME      = TEME
TIME_SYSTEM    = UTC
MEAN_ELEMENT_THEORY = SGP/SGP4

EPOCH          = 2025-11-29T06:00:02.000160
MEAN_MOTION    = 15.63112756
ECCENTRICITY   = .00018335
INCLINATION    = 42.9997
RA_OF_ASC_NODE = 126.3305
ARG_OF_PERICENTER = 276.1495
MEAN_ANOMALY   = 153.0350

EPHEMERIS_TYPE = 0
CLASSIFICATION_TYPE = U
NORAD_CAT_ID   = 66439
ELEMENT_SET_NO = 999
REV_AT_EPOCH   = 411
BSTAR          = -.23867404E-1
MEAN_MOTION_DOT = -.1970779E-1
MEAN_MOTION_DDOT = 0

